[
  {
    "OBJECT_NAME": "STARLINK-1134",
    "OBJECT_ID": "20006E",
    "EPOCH": "2025-10-24T20:56:54.299616",
    "MEAN_MOTION": 15.26667851,
    "ECCENTRICITY": 0.0012282,
    "INCLINATION": 53.0401,
    "RA_OF_ASC_NODE": 155.633,
    "ARG_OF_PERICENTER": 116.8822,
    "MEAN_ANOMALY": 243.3433,
    "EPHEMERIS_TYPE": 0,
    "CLASSIFICATION_TYPE": "U",
    "NORAD_CAT_ID": 45048,
    "ELEMENT_SET_NO": 999,
    "REV_AT_EPOCH": 31628,
    "BSTAR": 0.00063194,
    "MEAN_MOTION_DOT": 0.00016521,
    "MEAN_MOTION_DDOT": 0.0,
    "TLE_LINE1": "1 45048U 20006E   25297.87285069  .00016521  00000+0  63194-3 0  9999",
    "TLE_LINE2": "2 45048  53.0401 155.6330 0012282 116.8822 243.3433 15.26667851316281",
    "COMMENT": "Grouped by shell and plane from TLE"
  },
  {
    "OBJECT_NAME": "STARLINK-1750",
    "OBJECT_ID": "20062N",
    "EPOCH": "2025-11-11T00:00:02.999808",
    "MEAN_MOTION": 15.44666894,
    "ECCENTRICITY": 0.0011057,
    "INCLINATION": 53.0487,
    "RA_OF_ASC_NODE": 157.2347,
    "ARG_OF_PERICENTER": 141.3774,
    "MEAN_ANOMALY": 287.3408,
    "EPHEMERIS_TYPE": 0,
    "CLASSIFICATION_TYPE": "U",
    "NORAD_CAT_ID": 46337,
    "ELEMENT_SET_NO": 999,
    "REV_AT_EPOCH": 566,
    "BSTAR": 0.0039088000000000005,
    "MEAN_MOTION_DOT": 0.00189663,
    "MEAN_MOTION_DDOT": 0.0,
    "TLE_LINE1": "1 46337U 20062N   25315.00003472  .00189663  00000+0  39088-2 0  9997",
    "TLE_LINE2": "2 46337  53.0487 157.2347 0011057 141.3774 287.3408 15.44666894  5664",
    "COMMENT": "Grouped by shell and plane from TLE"
  },
  {
    "OBJECT_NAME": "STARLINK-1765",
    "OBJECT_ID": "20062V",
    "EPOCH": "2025-11-11T23:27:48.306816",
    "MEAN_MOTION": 15.42235364,
    "ECCENTRICITY": 0.0006672,
    "INCLINATION": 53.0503,
    "RA_OF_ASC_NODE": 156.0814,
    "ARG_OF_PERICENTER": 158.6374,
    "MEAN_ANOMALY": 201.491,
    "EPHEMERIS_TYPE": 0,
    "CLASSIFICATION_TYPE": "U",
    "NORAD_CAT_ID": 46344,
    "ELEMENT_SET_NO": 999,
    "REV_AT_EPOCH": 28697,
    "BSTAR": 0.006751200000000001,
    "MEAN_MOTION_DOT": 0.00306312,
    "MEAN_MOTION_DDOT": 0.0,
    "TLE_LINE1": "1 46344U 20062V   25315.97764244  .00306312  00000+0  67512-2 0  9997",
    "TLE_LINE2": "2 46344  53.0503 156.0814 0006672 158.6374 201.4910 15.42235364286973",
    "COMMENT": "Grouped by shell and plane from TLE"
  },
  {
    "OBJECT_NAME": "STARLINK-1986",
    "OBJECT_ID": "21009AL",
    "EPOCH": "2025-11-11T00:00:02.999808",
    "MEAN_MOTION": 15.56303407,
    "ECCENTRICITY": 0.0001203,
    "INCLINATION": 53.0428,
    "RA_OF_ASC_NODE": 159.7169,
    "ARG_OF_PERICENTER": 208.1583,
    "MEAN_ANOMALY": 243.4451,
    "EPHEMERIS_TYPE": 0,
    "CLASSIFICATION_TYPE": "U",
    "NORAD_CAT_ID": 47582,
    "ELEMENT_SET_NO": 999,
    "REV_AT_EPOCH": 592,
    "BSTAR": 0.002094,
    "MEAN_MOTION_DOT": 0.00152383,
    "MEAN_MOTION_DDOT": 0.0,
    "TLE_LINE1": "1 47582U 21009AL  25315.00003472  .00152383  00000+0  20940-2 0  9998",
    "TLE_LINE2": "2 47582  53.0428 159.7169 0001203 208.1583 243.4451 15.56303407  5924",
    "COMMENT": "Grouped by shell and plane from TLE"
  },
  {
    "OBJECT_NAME": "STARLINK-2024",
    "OBJECT_ID": "21009BL",
    "EPOCH": "2025-11-11T08:00:03.000384",
    "MEAN_MOTION": 15.49031612,
    "ECCENTRICITY": 0.0008182,
    "INCLINATION": 53.0473,
    "RA_OF_ASC_NODE": 155.3678,
    "ARG_OF_PERICENTER": 95.7777,
    "MEAN_ANOMALY": 125.8171,
    "EPHEMERIS_TYPE": 0,
    "CLASSIFICATION_TYPE": "U",
    "NORAD_CAT_ID": 47606,
    "ELEMENT_SET_NO": 999,
    "REV_AT_EPOCH": 590,
    "BSTAR": 0.0029638999999999998,
    "MEAN_MOTION_DOT": 0.00166498,
    "MEAN_MOTION_DDOT": 0.0,
    "TLE_LINE1": "1 47606U 21009BL  25315.33336806  .00166498  00000+0  29639-2 0  9997",
    "TLE_LINE2": "2 47606  53.0473 155.3678 0008182  95.7777 125.8171 15.49031612  5904",
    "COMMENT": "Grouped by shell and plane from TLE"
  },
  {
    "OBJECT_NAME": "STARLINK-30264",
    "OBJECT_ID": "23115P",
    "EPOCH": "2025-11-10T23:50:00.491136",
    "MEAN_MOTION": 15.27589737,
    "ECCENTRICITY": 0.0001155,
    "INCLINATION": 42.9993,
    "RA_OF_ASC_NODE": 159.2295,
    "ARG_OF_PERICENTER": 271.2331,
    "MEAN_ANOMALY": 88.8388,
    "EPHEMERIS_TYPE": 0,
    "CLASSIFICATION_TYPE": "U",
    "NORAD_CAT_ID": 57534,
    "ELEMENT_SET_NO": 999,
    "REV_AT_EPOCH": 12720,
    "BSTAR": 0.0002128,
    "MEAN_MOTION_DOT": 5.6e-05,
    "MEAN_MOTION_DDOT": 0.0,
    "TLE_LINE1": "1 57534U 23115P   25314.99306124  .00005600  00000+0  21280-3 0  9991",
    "TLE_LINE2": "2 57534  42.9993 159.2295 0001155 271.2331  88.8388 15.27589737127205",
    "COMMENT": "Grouped by shell and plane from TLE"
  },
  {
    "OBJECT_NAME": "STARLINK-30896",
    "OBJECT_ID": "23177C",
    "EPOCH": "2025-11-11T06:30:36.720576",
    "MEAN_MOTION": 15.27572055,
    "ECCENTRICITY": 7.65e-05,
    "INCLINATION": 43.0037,
    "RA_OF_ASC_NODE": 157.5663,
    "ARG_OF_PERICENTER": 241.0763,
    "MEAN_ANOMALY": 119.0012,
    "EPHEMERIS_TYPE": 0,
    "CLASSIFICATION_TYPE": "U",
    "NORAD_CAT_ID": 58353,
    "ELEMENT_SET_NO": 999,
    "REV_AT_EPOCH": 11172,
    "BSTAR": 0.0,
    "MEAN_MOTION_DOT": -2.529e-05,
    "MEAN_MOTION_DDOT": 0.0,
    "TLE_LINE1": "1 58353U 23177C   25315.27125834 -.00002529  00000+0 -82438-4 0  9990",
    "TLE_LINE2": "2 58353  43.0037 157.5663 0000765 241.0763 119.0012 15.27572055111722",
    "COMMENT": "Grouped by shell and plane from TLE"
  },
  {
    "OBJECT_NAME": "STARLINK-30950",
    "OBJECT_ID": "23183D",
    "EPOCH": "2025-11-11T06:40:28.498368",
    "MEAN_MOTION": 15.27585767,
    "ECCENTRICITY": 0.0001383,
    "INCLINATION": 43.003,
    "RA_OF_ASC_NODE": 153.853,
    "ARG_OF_PERICENTER": 254.8496,
    "MEAN_ANOMALY": 105.2203,
    "EPHEMERIS_TYPE": 0,
    "CLASSIFICATION_TYPE": "U",
    "NORAD_CAT_ID": 58440,
    "ELEMENT_SET_NO": 999,
    "REV_AT_EPOCH": 11092,
    "BSTAR": 6.2927e-05,
    "MEAN_MOTION_DOT": 1.47e-05,
    "MEAN_MOTION_DDOT": 0.0,
    "TLE_LINE1": "1 58440U 23183D   25315.27810762  .00001470  00000+0  62927-4 0  9998",
    "TLE_LINE2": "2 58440  43.0030 153.8530 0001383 254.8496 105.2203 15.27585767110920",
    "COMMENT": "Grouped by shell and plane from TLE"
  },
  {
    "OBJECT_NAME": "STARLINK-31306",
    "OBJECT_ID": "24020A",
    "EPOCH": "2025-11-11T06:26:29.641632",
    "MEAN_MOTION": 15.30186385,
    "ECCENTRICITY": 0.0001997,
    "INCLINATION": 53.1558,
    "RA_OF_ASC_NODE": 152.2389,
    "ARG_OF_PERICENTER": 89.9681,
    "MEAN_ANOMALY": 270.1548,
    "EPHEMERIS_TYPE": 0,
    "CLASSIFICATION_TYPE": "U",
    "NORAD_CAT_ID": 58876,
    "ELEMENT_SET_NO": 999,
    "REV_AT_EPOCH": 10112,
    "BSTAR": 9.806100000000001e-05,
    "MEAN_MOTION_DOT": 2.545e-05,
    "MEAN_MOTION_DDOT": 0.0,
    "TLE_LINE1": "1 58876U 24020A   25315.26839863  .00002545  00000+0  98061-4 0  9996",
    "TLE_LINE2": "2 58876  53.1558 152.2389 0001997  89.9681 270.1548 15.30186385101122",
    "COMMENT": "Grouped by shell and plane from TLE"
  },
  {
    "OBJECT_NAME": "STARLINK-31326",
    "OBJECT_ID": "24020B",
    "EPOCH": "2025-11-11T06:12:58.371552",
    "MEAN_MOTION": 15.30197009,
    "ECCENTRICITY": 0.0002161,
    "INCLINATION": 53.158,
    "RA_OF_ASC_NODE": 152.8843,
    "ARG_OF_PERICENTER": 83.6697,
    "MEAN_ANOMALY": 276.4549,
    "EPHEMERIS_TYPE": 0,
    "CLASSIFICATION_TYPE": "U",
    "NORAD_CAT_ID": 58877,
    "ELEMENT_SET_NO": 999,
    "REV_AT_EPOCH": 9993,
    "BSTAR": 4.4356e-05,
    "MEAN_MOTION_DOT": 9.54e-06,
    "MEAN_MOTION_DDOT": 0.0,
    "TLE_LINE1": "1 58877U 24020B   25315.25900893  .00000954  00000+0  44356-4 0  9998",
    "TLE_LINE2": "2 58877  53.1580 152.8843 0002161  83.6697 276.4549 15.30197009 99931",
    "COMMENT": "Grouped by shell and plane from TLE"
  },
  {
    "OBJECT_NAME": "STARLINK-31300",
    "OBJECT_ID": "24020C",
    "EPOCH": "2025-11-11T06:31:02.602560",
    "MEAN_MOTION": 15.3019181,
    "ECCENTRICITY": 0.0001536,
    "INCLINATION": 53.1573,
    "RA_OF_ASC_NODE": 152.2574,
    "ARG_OF_PERICENTER": 93.0406,
    "MEAN_ANOMALY": 267.0771,
    "EPHEMERIS_TYPE": 0,
    "CLASSIFICATION_TYPE": "U",
    "NORAD_CAT_ID": 58878,
    "ELEMENT_SET_NO": 999,
    "REV_AT_EPOCH": 9994,
    "BSTAR": 4.9461e-05,
    "MEAN_MOTION_DOT": 1.105e-05,
    "MEAN_MOTION_DDOT": 0.0,
    "TLE_LINE1": "1 58878U 24020C   25315.27155790  .00001105  00000+0  49461-4 0  9990",
    "TLE_LINE2": "2 58878  53.1573 152.2574 0001536  93.0406 267.0771 15.30191810 99945",
    "COMMENT": "Grouped by shell and plane from TLE"
  },
  {
    "OBJECT_NAME": "STARLINK-31260",
    "OBJECT_ID": "24020F",
    "EPOCH": "2025-11-11T06:41:41.874432",
    "MEAN_MOTION": 15.3019034,
    "ECCENTRICITY": 0.0001575,
    "INCLINATION": 53.1587,
    "RA_OF_ASC_NODE": 152.3012,
    "ARG_OF_PERICENTER": 98.8238,
    "MEAN_ANOMALY": 261.2941,
    "EPHEMERIS_TYPE": 0,
    "CLASSIFICATION_TYPE": "U",
    "NORAD_CAT_ID": 58881,
    "ELEMENT_SET_NO": 999,
    "REV_AT_EPOCH": 9994,
    "BSTAR": 0.0,
    "MEAN_MOTION_DOT": -2.316e-05,
    "MEAN_MOTION_DDOT": 0.0,
    "TLE_LINE1": "1 58881U 24020F   25315.27895688 -.00002316  00000+0 -66097-4 0  9992",
    "TLE_LINE2": "2 58881  53.1587 152.3012 0001575  98.8238 261.2941 15.30190340 99943",
    "COMMENT": "Grouped by shell and plane from TLE"
  },
  {
    "OBJECT_NAME": "STARLINK-31323",
    "OBJECT_ID": "24020G",
    "EPOCH": "2025-11-11T06:46:13.674144",
    "MEAN_MOTION": 15.30201846,
    "ECCENTRICITY": 0.0001317,
    "INCLINATION": 53.1595,
    "RA_OF_ASC_NODE": 152.3216,
    "ARG_OF_PERICENTER": 87.6381,
    "MEAN_ANOMALY": 272.477,
    "EPHEMERIS_TYPE": 0,
    "CLASSIFICATION_TYPE": "U",
    "NORAD_CAT_ID": 58882,
    "ELEMENT_SET_NO": 999,
    "REV_AT_EPOCH": 9994,
    "BSTAR": 3.9578000000000006e-05,
    "MEAN_MOTION_DOT": 8.13e-06,
    "MEAN_MOTION_DDOT": 0.0,
    "TLE_LINE1": "1 58882U 24020G   25315.28210271  .00000813  00000+0  39578-4 0  9995",
    "TLE_LINE2": "2 58882  53.1595 152.3216 0001317  87.6381 272.4770 15.30201846 99946",
    "COMMENT": "Grouped by shell and plane from TLE"
  }
]